OBJECT_NAME,OBJECT_ID,EPOCH,MEAN_MOTION,ECCENTRICITY,INCLINATION,RA_OF_ASC_NODE,ARG_OF_PERICENTER,MEAN_ANOMALY,EPHEMERIS_TYPE,CLASSIFICATION_TYPE,NORAD_CAT_ID,ELEMENT_SET_NO,REV_AT_EPOCH,BSTAR,MEAN_MOTION_DOT,MEAN_MOTION_DDOT
ASTRA 2G,2014-089A,2026-07-15T03:14:16.045152,1.00268141,.0004493,0.0521,26.8158,47.5161,295.4195,0,U,40364,999,4224,0,.14E-5,0
FENGYUN 2G,2014-090A,2026-07-14T17:53:29.302656,1.00281192,.00041209,5.7061,72.4807,171.8392,55.9516,0,U,40367,999,4227,0,-.314E-5,0
MUOS-3,2015-002A,2026-07-14T09:55:09.621120,1.00269764,.00534929,4.5717,43.6246,177.3566,204.5345,0,U,40374,999,4186,0,-.139E-5,0
INMARSAT 5-F2,2015-005A,2026-07-14T01:10:44.700672,1.00271790,.00002198,0.0177,29.1654,42.1473,183.2861,0,U,40384,999,4126,0,-.291E-5,0
ABS-3A,2015-010A,2026-07-14T03:08:17.232000,1.00275029,.00017603,0.0138,33.2338,40.5028,262.3603,0,U,40424,999,4164,0,-.32E-6,0
EUTELSAT 115 WEST B,2015-010B,2026-07-14T22:51:00.245088,1.00269769,.0000379,0.0069,194.9681,256.3601,69.3131,0,U,40425,999,4166,0,-.33E-6,0
EXPRESS-AM7,2015-012A,2026-07-15T03:17:38.222016,1.00270245,.0002714,0.0174,38.7884,82.1931,261.3909,0,U,40505,999,4128,0,.141E-5,0
BEIDOU-3S IGSO-1S,2015-019A,2026-07-02T19:12:21.705408,1.00680073,.00768606,49.1798,295.2769,219.1125,144.2493,0,U,40549,999,4123,0,-.19E-5,0
THOR 7,2015-022A,2026-07-15T03:06:01.835424,1.00273578,.0002232,0.0559,238.7496,235.9479,224.1280,0,U,40613,999,4109,0,-.17E-6,0
TURKMENALEM52E/MONACOSAT,2015-023A,2026-07-15T03:21:07.887168,1.00271126,.0002608,0.0311,83.3257,38.8207,273.1251,0,U,40617,999,4112,0,.95E-6,0
DIRECTV 15,2015-026A,2026-07-14T16:20:59.066880,1.00271323,.00000994,0.0176,71.4979,242.5429,120.8693,0,U,40663,999,4073,0,-.111E-5,0
SKY MEXICO-1,2015-026B,2026-07-15T02:43:45.027840,1.00270097,.000238,0.0168,37.7700,98.4023,118.9217,0,U,40664,999,4073,0,-.243E-5,0
METEOSAT-11 (MSG-4),2015-034A,2026-07-15T03:08:54.060000,1.00271840,.0002175,3.2689,70.9328,354.2848,284.2389,0,U,40732,999,749,0,.5E-6,0
STAR ONE C4,2015-034B,2026-07-15T02:54:59.321088,1.00269252,.0001309,0.0338,321.3805,134.6780,170.6447,0,U,40733,999,4029,0,-.274E-5,0
WGS F7 (USA 263),2015-036A,2026-07-15T04:42:38.860704,1.00269851,.000002,0.0126,40.2278,206.7010,291.7737,0,U,40746,999,4015,0,.8E-7,0
INTELSAT 34 (IS-34),2015-039A,2026-07-14T06:18:31.912704,1.00271009,.00005547,0.0110,352.6276,9.3806,329.2648,0,U,40874,999,3990,0,-.292E-5,0
EUTELSAT 8 WEST B,2015-039B,2026-07-15T03:04:02.026272,1.00271818,.0003804,0.0642,348.3036,120.3237,222.3622,0,U,40875,999,3993,0,-.75E-6,0
GSAT-6,2015-041A,2026-07-15T03:29:44.560896,1.00273215,.000301,1.9889,82.2446,28.3951,317.2901,0,U,40880,999,3987,0,-.171E-5,0
INMARSAT 5-F3,2015-042A,2026-07-14T05:42:52.664256,1.00271087,.00004233,0.0175,36.2785,155.0311,6.0947,0,U,40882,999,3984,0,.43E-6,0
MUOS-4,2015-044A,2026-07-15T03:27:22.287744,1.00271213,.0056502,4.3812,42.3935,3.4345,13.9910,0,U,40887,999,3984,0,-.104E-5,0
TJS-1,2015-046A,2026-07-15T04:50:38.802336,1.00271383,.0005032,0.3935,84.7499,19.0518,56.9376,0,U,40892,999,3985,0,-.166E-5,0
EXPRESS-AM8,2015-048A,2026-07-14T01:22:23.242944,1.00270838,.00004071,0.0176,310.7018,17.0251,330.7860,0,U,40895,999,3961,0,-.118E-5,0
BEIDOU-3S IGSO-2S,2015-053A,2026-07-15T03:32:44.274624,1.00252631,.0066249,49.1789,258.4479,193.1115,347.9978,0,U,40938,999,3963,0,-.91E-6,0
SKY MUSTER 1 (NBN1A),2015-054A,2026-07-14T15:47:39.761376,1.00268737,.00016961,0.0173,26.1429,97.4649,186.0688,0,U,40940,999,3953,0,0,0
ARSAT 2,2015-054B,2026-07-15T02:43:07.588128,1.00270205,.0001852,0.0360,290.7108,176.4596,145.5691,0,U,40941,999,3958,0,-.234E-5,0
MORELOS 3,2015-056A,2026-07-15T00:51:19.607040,1.00273114,.0000418,3.2097,15.7758,149.4607,27.4052,0,U,40946,999,3956,0,-.53E-6,0
APSTAR-9,2015-059A,2026-07-15T05:49:00.388704,1.00271784,.0003083,0.0245,46.9322,140.8754,334.5497,0,U,40982,999,3940,0,-.275E-5,0
TURKSAT 4B,2015-060A,2026-07-15T03:20:30.445728,1.00275560,.0002185,0.0480,247.4984,232.8549,272.7352,0,U,40984,999,3937,0,.105E-5,0
ZHONGXING-2C,2015-063A,2026-07-14T19:02:35.304288,1.00279396,.0007845,0.3423,88.5770,98.0159,135.1540,0,U,41021,999,3925,0,-.333E-5,0
GSAT-15,2015-065A,2026-07-14T08:43:42.352896,1.00267881,.00035804,0.0277,63.4769,29.8725,63.3157,0,U,41028,999,3907,0,0,0
BADR-7 (ARABSAT-6B),2015-065B,2026-07-15T03:13:38.603712,1.00275350,.0005183,0.0160,245.0412,318.0417,164.3519,0,U,41029,999,3904,0,0,0
LAOSAT 1,2015-067A,2026-07-14T18:21:24.476832,1.00265258,.00021536,0.0190,272.4176,152.4799,271.5860,0,U,41034,999,3913,0,0,0
