ASTRA 2G                
1 40364U 14089A   26196.13490793  .00000140  00000+0  00000+0 0  9992
2 40364   0.0521  26.8158 0004493  47.5161 295.4195  1.00268141 42241
FENGYUN 2G              
1 40367U 14090A   26195.74547804 -.00000314  00000+0  00000+0 0  9993
2 40367   5.7061  72.4807 0004120 171.8392  55.9516  1.00281192 42277
MUOS-3                  
1 40374U 15002A   26195.41330580 -.00000139  00000+0  00000+0 0  9995
2 40374   4.5717  43.6246 0053492 177.3566 204.5345  1.00269764 41864
INMARSAT 5-F2           
1 40384U 15005A   26195.04912848 -.00000291  00000+0  00000+0 0  9990
2 40384   0.0177  29.1654 0000219  42.1473 183.2861  1.00271790 41265
ABS-3A                  
1 40424U 15010A   26195.13075500 -.00000032  00000+0  00000+0 0  9999
2 40424   0.0138  33.2338 0001760  40.5028 262.3603  1.00275029 41646
EUTELSAT 115 WEST B     
1 40425U 15010B   26195.95208617 -.00000033  00000+0  00000+0 0  9998
2 40425   0.0069 194.9681 0000379 256.3601  69.3131  1.00269769 41662
EXPRESS-AM7             
1 40505U 15012A   26196.13724794  .00000141  00000+0  00000+0 0  9998
2 40505   0.0174  38.7884 0002714  82.1931 261.3909  1.00270245 41280
BEIDOU-3S IGSO-1S       
1 40549U 15019A   26183.80025122 -.00000190  00000+0  00000+0 0  9997
2 40549  49.1798 295.2769 0076860 219.1125 144.2493  1.00680073 41232
THOR 7                  
1 40613U 15022A   26196.12918791 -.00000017  00000+0  00000+0 0  9993
2 40613   0.0559 238.7496 0002232 235.9479 224.1280  1.00273578 41098
TURKMENALEM52E/MONACOSAT
1 40617U 15023A   26196.13967462  .00000095  00000+0  00000+0 0  9993
2 40617   0.0311  83.3257 0002608  38.8207 273.1251  1.00271126 41126
DIRECTV 15              
1 40663U 15026A   26195.68123920 -.00000111  00000+0  00000+0 0  9999
2 40663   0.0176  71.4979 0000099 242.5429 120.8693  1.00271323 40730
SKY MEXICO-1            
1 40664U 15026B   26196.11371560 -.00000243  00000+0  00000+0 0  9990
2 40664   0.0168  37.7700 0002380  98.4023 118.9217  1.00270097 40739
METEOSAT-11 (MSG-4)     
1 40732U 15034A   26196.13118125  .00000050  00000+0  00000+0 0  9998
2 40732   3.2689  70.9328 0002175 354.2848 284.2389  1.00271840  7493
STAR ONE C4             
1 40733U 15034B   26196.12151992 -.00000274  00000+0  00000+0 0  9996
2 40733   0.0338 321.3805 0001309 134.6780 170.6447  1.00269252 40298
WGS F7 (USA 263)        
1 40746U 15036A   26196.19628311  .00000008  00000+0  00000+0 0  9997
2 40746   0.0126  40.2278 0000020 206.7010 291.7737  1.00269851 40151
INTELSAT 34 (IS-34)     
1 40874U 15039A   26195.26286936 -.00000292  00000+0  00000+0 0  9998
2 40874   0.0110 352.6276 0000554   9.3806 329.2648  1.00271009 39903
EUTELSAT 8 WEST B       
1 40875U 15039B   26196.12780123 -.00000075  00000+0  00000+0 0  9991
2 40875   0.0642 348.3036 0003804 120.3237 222.3622  1.00271818 39939
GSAT-6                  
1 40880U 15041A   26196.14565464 -.00000171  00000+0  00000+0 0  9998
2 40880   1.9889  82.2446 0003010  28.3951 317.2901  1.00273215 39876
INMARSAT 5-F3           
1 40882U 15042A   26195.23810954  .00000043  00000+0  00000+0 0  9994
2 40882   0.0175  36.2785 0000423 155.0311   6.0947  1.00271087 39849
MUOS-4                  
1 40887U 15044A   26196.14400796 -.00000104  00000+0  00000+0 0  9990
2 40887   4.3812  42.3935 0056502   3.4345  13.9910  1.00271213 39844
TJS-1                   
1 40892U 15046A   26196.20183799 -.00000166  00000+0  00000+0 0  9994
2 40892   0.3935  84.7499 0005032  19.0518  56.9376  1.00271383 39856
EXPRESS-AM8             
1 40895U 15048A   26195.05721346 -.00000118  00000+0  00000+0 0  9994
2 40895   0.0176 310.7018 0000407  17.0251 330.7860  1.00270838 39614
BEIDOU-3S IGSO-2S       
1 40938U 15053A   26196.14773466 -.00000091  00000+0  00000+0 0  9999
2 40938  49.1789 258.4479 0066249 193.1115 347.9978  1.00252631 39639
SKY MUSTER 1 (NBN1A)    
1 40940U 15054A   26195.65809909  .00000000  00000+0  00000+0 0  9999
2 40940   0.0173  26.1429 0001696  97.4649 186.0688  1.00268737 39536
ARSAT 2                 
1 40941U 15054B   26196.11328227 -.00000234  00000+0  00000+0 0  9991
2 40941   0.0360 290.7108 0001852 176.4596 145.5691  1.00270205 39583
MORELOS 3               
1 40946U 15056A   26196.03564360 -.00000053  00000+0  00000+0 0  9998
2 40946   3.2097  15.7758 0000418 149.4607  27.4052  1.00273114 39565
APSTAR-9                
1 40982U 15059A   26196.24236561 -.00000275  00000+0  00000+0 0  9999
2 40982   0.0245  46.9322 0003083 140.8754 334.5497  1.00271784 39406
TURKSAT 4B              
1 40984U 15060A   26196.13924127  .00000105  00000+0  00000+0 0  9994
2 40984   0.0480 247.4984 0002185 232.8549 272.7352  1.00275560 39372
ZHONGXING-2C            
1 41021U 15063A   26195.79346417 -.00000333  00000+0  00000+0 0  9995
2 41021   0.3423  88.5770 0007845  98.0159 135.1540  1.00279396 39258
GSAT-15                 
1 41028U 15065A   26195.36368464  .00000000  00000+0  00000+0 0  9993
2 41028   0.0277  63.4769 0003580  29.8725  63.3157  1.00267881 39074
BADR-7 (ARABSAT-6B)     
1 41029U 15065B   26196.13447458  .00000000  00000+0  00000+0 0  9991
2 41029   0.0160 245.0412 0005183 318.0417 164.3519  1.00275350 39042
LAOSAT 1                
1 41034U 15067A   26195.76486663  .00000000  00000+0  00000+0 0  9998
2 41034   0.0190 272.4176 0002153 152.4799 271.5860  1.00265258 39135
